EXPRESS-AT1             
1 39612U 14010A   26180.52978978  .00000021  00000+0  00000+0 0  9990
2 39612   0.2894  85.5977 0004493  44.0412  42.5211  1.00307304 44946
EXPRESS-AT2             
1 39613U 14010B   26179.88664424  .00000000  00000+0  00000+0 0  9993
2 39613   0.0244  17.2655 0000322 323.1898 311.7122  1.00271039 44616
AMAZONAS 4A             
1 39616U 14011A   26180.50251144 -.00000241  00000+0  00000+0 0  9997
2 39616   0.0646 160.7885 0004461 317.4987 266.1956  1.00270482 44830
ASTRA 5B                
1 39617U 14011B   26180.30791590  .00000148  00000+0  00000+0 0  9995
2 39617   0.0497 330.9530 0002189 113.3545 327.4143  1.00273689 44786
IRNSS-1B                
1 39635U 14017A   26179.73864156  .00000150  00000+0  00000+0 0  9998
2 39635  28.9045 240.2040 0022832 192.5986 165.0167  1.00270538 44904
LUCH-5V                 
1 39727U 14023A   26179.98775090 -.00000262  00000+0  00000+0 0  9997
2 39727   5.1615  69.6311 0002553  52.1822 245.6113  1.00271326 44472
KAZSAT-3                
1 39728U 14023B   26180.52874977  .00000072  00000+0  00000+0 0  9992
2 39728   0.0118   2.8144 0000059  36.6106 127.0300  1.00271104 42584
EUTELSAT 3B             
1 39773U 14030A   26180.37520921  .00000031  00000+0  00000+0 0  9995
2 39773   0.0599 359.2425 0004280  96.8936 319.4827  1.00271348 44186
ASIASAT 8 (AMOS-7)      
1 40107U 14046A   26180.53803912 -.00000321  00000+0  00000+0 0  9990
2 40107   0.0435 271.7573 0002012 191.2365 113.5641  1.00264899102272
ASIASAT 6               
1 40141U 14052A   26180.04489285 -.00000351  00000+0  00000+0 0  9997
2 40141   0.0401 269.1238 0000917 196.0703 308.0111  1.00272833 43198
OPTUS 10                
1 40146U 14054A   26180.47674416 -.00000136  00000+0  00000+0 0  9994
2 40146   0.0533  62.1310 0002158  35.2388 147.8295  1.00270907 43151
MEASAT-3B               
1 40147U 14054B   26180.39275926 -.00000230  00000+0  00000+0 0  9994
2 40147   0.0497  53.4087 0002852  18.8889  78.0563  1.00269411 43037
HIMAWARI-8              
1 40267U 14060A   26180.54503284 -.00000264  00000+0  00000+0 0  9999
2 40267   0.0177 356.4441 0001134 101.5196 156.5425  1.00273273 42880
IRNSS-1C                
1 40269U 14061A   26179.82070670 -.00000156  00000+0  00000+0 0  9999
2 40269   6.5464  88.7100 0022105   4.4529 202.1283  1.00274876 42803
INTELSAT 30 (IS-30)     
1 40271U 14062A   26179.68417422 -.00000139  00000+0  00000+0 0  9998
2 40271   0.0209  45.2858 0001725 346.1200  36.6237  1.00270773  6909
ARSAT 1                 
1 40272U 14062B   26180.50294477 -.00000249  00000+0  00000+0 0  9997
2 40272   0.0133 345.6796 0002134 107.6852 293.4793  1.00271431 42746
EUTELSAT 53A            
1 40277U 14064A   26180.67024404  .00000109  00000+0  00000+0 0  9997
2 40277   0.0136 311.9338 0001418 227.3325  32.7727  1.00268875 41693
GSAT-16                 
1 40332U 14078A   26179.95777222  .00000096  00000+0  00000+0 0  9991
2 40332   0.0546 266.1428 0008084 178.9848 231.8026  1.00274665 42226
DIRECTV 14              
1 40333U 14078B   26180.42621058 -.00000114  00000+0  00000+0 0  9993
2 40333   0.0142  37.8435 0000195  37.7853 256.0721  1.00270895 42168
YAMAL 401               
1 40345U 14082A   26180.61656434  .00000000  00000+0  00000+0 0  9991
2 40345   0.0184  48.0334 0000580  30.8993 150.6778  1.00268204 42045
ASTRA 2G                
1 40364U 14089A   26180.30886925  .00000161  00000+0  00000+0 0  9993
2 40364   0.0479 341.9626 0004749  99.1079 335.7167  1.00274762 42084
FENGYUN 2G              
1 40367U 14090A   26179.98239250 -.00000295  00000+0  00000+0 0  9992
2 40367   5.6682  72.6781 0003639 149.6814 147.9948  1.00268300 42114
MUOS-3                  
1 40374U 15002A   26180.37156920 -.00000121  00000+0  00000+0 0  9999
2 40374   4.5436  43.5739 0052619 177.7295 174.4485  1.00270672 41704
INMARSAT 5-F2           
1 40384U 15005A   26180.43496396 -.00000274  00000+0  00000+0 0  9993
2 40384   0.0186  12.7302 0000561  72.1382 294.2273  1.00273438 41110
ABS-3A                  
1 40424U 15010A   26180.37399588  .00000000  00000+0  00000+0 0  9998
2 40424   0.0435  58.3910 0001703 351.6831 359.0413  1.00268939 41493
EUTELSAT 115 WEST B     
1 40425U 15010B   26180.49445139 -.00000013  00000+0  00000+0 0  9991
2 40425   0.0092 152.1125 0000227 111.3651  77.1878  1.00270290 41503
EXPRESS-AM7             
1 40505U 15012A   26180.52510977  .00000000  00000+0  00000+0 0  9994
2 40505   0.0283  31.8912 0003236  73.2445  41.4999  1.00269917 41132
BEIDOU-3S IGSO-1S       
1 40549U 15019A   26178.80438100 -.00000163  00000+0  00000+0 0  9995
2 40549  49.1741 295.3331 0039098 191.8080 168.8013  1.00249344 41180
THOR 7                  
1 40613U 15022A   26180.30314921  .00000003  00000+0  00000+0 0  9995
2 40613   0.0263 103.6774 0002693 350.6276 291.5525  1.00272178 40937
TURKMENALEM52E/MONACOSAT
1 40617U 15023A   26180.52744977  .00000115  00000+0  00000+0 0  9996
2 40617   0.0292  74.6794 0003035  15.1859  69.6383  1.00270873 40973
DIRECTV 15              
1 40663U 15026A   26180.32308647 -.00000091  00000+0  00000+0 0  9992
2 40663   0.0145  55.7378 0000527  20.9035 214.2061  1.00271419 40587
SKY MEXICO-1            
1 40664U 15026B   26180.50155808  .00000000  00000+0  00000+0 0  9991
2 40664   0.0290  32.1899 0002682  84.9230 262.2382  1.00268970 40573
METEOSAT-11 (MSG-4)     
1 40732U 15034A   26180.30514256  .00000070  00000+0  00000+0 0  9997
2 40732   3.2308  71.0353 0002239 347.6947 337.8883  1.00266868  7339
STAR ONE C4             
1 40733U 15034B   26180.50329144 -.00000254  00000+0  00000+0 0  9995
2 40733   0.0222 345.7889 0002117  88.9081 314.0696  1.00270110 40133
WGS F7 (USA 263)        
1 40746U 15036A   26180.50392100  .00000000  00000+0  00000+0 0  9991
2 40746   0.0426  59.7299 0000881 133.3471  80.8952  1.00272377 39996
INTELSAT 34 (IS-34)     
1 40874U 15039A   26179.68564581 -.00000274  00000+0  00000+0 0  9991
2 40874   0.0117 356.8645 0000689  30.4825  80.7691  1.00271838 39751
EUTELSAT 8 WEST B       
1 40875U 15039B   26180.44415066 -.00000055  00000+0  00000+0 0  9998
2 40875   0.0647  12.9674 0003738  81.0867 335.3620  1.00271796 39785
GSAT-6                  
1 40880U 15041A   26180.53351646 -.00000150  00000+0  00000+0 0  9996
2 40880   1.9503  82.4423 0003093   8.4294 101.3242  1.00270299 39729
INMARSAT 5-F3           
1 40882U 15042A   26180.36141888  .00000061  00000+0  00000+0 0  9995
2 40882   0.0187  21.4001 0000569 108.3773  97.3706  1.00269754 39690
MUOS-4                  
1 40887U 15044A   26180.53212978 -.00000085  00000+0  00000+0 0  9997
2 40887   4.3520  42.3138 0057656   3.1542 138.6968  1.00272359 39684
TJS-1                   
1 40892U 15046A   26180.28864277 -.00000145  00000+0  00000+0 0  9999
2 40892   0.3536  84.9009 0005928   7.0937  84.3081  1.00270466 39699
EXPRESS-AM8             
1 40895U 15048A   26179.58758112 -.00000100  00000+0  00000+0 0  9996
2 40895   0.0170 333.2146 0000488  69.1617  71.8327  1.00272112 39464
BEIDOU-3S IGSO-2S       
1 40938U 15053A   26179.96992363 -.00000099  00000+0  00000+0 0  9997
2 40938  49.2020 258.6412 0065667 193.1508 268.9330  1.00257545 39471
SKY MUSTER 1 (NBN1A)    
1 40940U 15054A   26180.54494617 -.00000267  00000+0  00000+0 0  9993
2 40940   0.0186 338.9617 0001988 114.2122 160.8847  1.00272326 39380
ARSAT 2                 
1 40941U 15054B   26180.50112476 -.00000214  00000+0  00000+0 0  9992
2 40941   0.0107   9.5879 0002239  79.4399 287.9623  1.00271652 39422
MORELOS 3               
1 40946U 15056A   26180.47614433 -.00000034  00000+0  00000+0 0  9995
2 40946   3.1969  15.3870 0000443   1.7289 318.7596  1.00272786 39403
APSTAR-9                
1 40982U 15059A   26180.55873008 -.00000254  00000+0  00000+0 0  9996
2 40982   0.0267 316.8979 0002770 219.6623  84.2320  1.00273137 39249
TURKSAT 4B              
1 40984U 15060A   26180.52710310  .00000126  00000+0  00000+0 0  9990
2 40984   0.0194  62.3828 0002515  32.4161  62.5183  1.00273437 39228
ZHONGXING-2C            
1 41021U 15063A   26180.53769247 -.00000313  00000+0  00000+0 0  9999
2 41021   0.3055  89.2928 0007672  95.0586  30.2883  1.00273260 39104
GSAT-15                 
1 41028U 15065A   26180.39310594 -.00000246  00000+0  00000+0 0  9994
2 41028   0.0460 260.9515 0004573 177.8217  73.7309  1.00270216 38927
BADR-7 (ARABSAT-6B)     
1 41029U 15065B   26180.30843590  .00000156  00000+0  00000+0 0  9992
2 41029   0.0577 234.7242 0004399 319.3715 220.3334  1.00276114 38881
LAOSAT 1                
1 41034U 15067A   26180.55044823 -.00000332  00000+0  00000+0 0  9996
2 41034   0.0380 196.9204 0002499 218.5915 188.7803  1.00270128 38985
TELSTAR 12V             
1 41036U 15068A   26180.44293733  .00000000  00000+0  00000+0 0  9994
2 41036   0.0260  25.0950 0002615  68.8885 328.0138  1.00270057 38741
ELEKTRO-L 2             
1 41105U 15074A   26178.94596200 -.00000113  00000+0  00000+0 0  9991
2 41105   6.7214  70.3918 0000680 283.3260 248.3287  1.00271140 38617
COSMOS 2513             
1 41121U 15075A   26180.67561738 -.00000127  00000+0  00000+0 0  9996
2 41121   0.0697 102.4372 0003620 336.3140 162.4669  1.00271777 38673
EXPRESS-AMU1            
1 41191U 15082A   26180.52432977  .00000167  00000+0  00000+0 0  9990
2 41191   0.0192  64.2490 0003020  35.8117  42.3878  1.00273531 38392
GAOFEN-4                
1 41194U 15083A   26179.54005676 -.00000323  00000+0  00000+0 0  9991
2 41194   0.3860  84.0131 0004263 110.8539  21.8883  1.00269753 38641
BELINTERSAT-1           
1 41238U 16001A   26180.52736310  .00000000  00000+0  00000+0 0  9998
2 41238   0.0340  81.1325 0001600 358.6450  79.1404  1.00273957 38364
IRNSS-1E                
1 41241U 16003A   26176.59836588 -.00000319  00000+0  00000+0 0  9998
2 41241  33.2517  59.6282 0019062 179.1130   2.2203  1.00274592 38164
